[{"OBJECT_NAME":"STARLINK-31479","OBJECT_ID":"2024-056W","EPOCH":"2026-03-09T12:51:14.065344","MEAN_MOTION":15.27578422,"ECCENTRICITY":0.00017925,"INCLINATION":43.0025,"RA_OF_ASC_NODE":235.6488,"ARG_OF_PERICENTER":279.3374,"MEAN_ANOMALY":80.7275,"EPHEMERIS_TYPE":0,"CLASSIFICATION_TYPE":"U","NORAD_CAT_ID":59316,"ELEMENT_SET_NO":999,"REV_AT_EPOCH":11108,"BSTAR":1.7997616e-5,"MEAN_MOTION_DOT":2.33e-6,"MEAN_MOTION_DDOT":0},{"OBJECT_NAME":"OBJECT E","OBJECT_ID":"2026-023E","EPOCH":"2026-03-09T23:33:47.695392","MEAN_MOTION":15.23129165,"ECCENTRICITY":0.00204824,"INCLINATION":96.6311,"RA_OF_ASC_NODE":141.8855,"ARG_OF_PERICENTER":125.9066,"MEAN_ANOMALY":234.4078,"EPHEMERIS_TYPE":0,"CLASSIFICATION_TYPE":"U","NORAD_CAT_ID":67678,"ELEMENT_SET_NO":999,"REV_AT_EPOCH":489,"BSTAR":0.00066049733,"MEAN_MOTION_DOT":0.00015639,"MEAN_MOTION_DDOT":0}]
